CCSDS_OMM_VERS = 2.0
CREATION_DATE  = 
ORIGINATOR     = 

OBJECT_NAME    = ERS-1
OBJECT_ID      = 1991-050A
CENTER_NAME    = EARTH
REF_FRAME      = TEME
TIME_SYSTEM    = UTC
MEAN_ELEMENT_THEORY = SGP/SGP4

EPOCH          = 2026-03-17T01:34:18.126912
MEAN_MOTION    = 14.39455000
ECCENTRICITY   = .0032033
INCLINATION    = 98.7875
RA_OF_ASC_NODE = 94.4854
ARG_OF_PERICENTER = 178.4627
MEAN_ANOMALY   = 181.6664

EPHEMERIS_TYPE = 0
CLASSIFICATION_TYPE = U
NORAD_CAT_ID   = 21574
ELEMENT_SET_NO = 999
REV_AT_EPOCH   = 81679
BSTAR          = .10044E-3
MEAN_MOTION_DOT = .268E-5
MEAN_MOTION_DDOT = 0

CCSDS_OMM_VERS = 2.0
CREATION_DATE  = 
ORIGINATOR     = 

OBJECT_NAME    = ARIANE 40 R/B
OBJECT_ID      = 1991-050F
CENTER_NAME    = EARTH
REF_FRAME      = TEME
TIME_SYSTEM    = UTC
MEAN_ELEMENT_THEORY = SGP/SGP4

EPOCH          = 2026-03-17T04:02:15.669888
MEAN_MOTION    = 14.42899144
ECCENTRICITY   = .0004126
INCLINATION    = 98.1996
RA_OF_ASC_NODE = 128.1236
ARG_OF_PERICENTER = 64.8706
MEAN_ANOMALY   = 295.2912

EPHEMERIS_TYPE = 0
CLASSIFICATION_TYPE = U
NORAD_CAT_ID   = 21610
ELEMENT_SET_NO = 999
REV_AT_EPOCH   = 82007
BSTAR          = .94819E-4
MEAN_MOTION_DOT = .275E-5
MEAN_MOTION_DDOT = 0

CCSDS_OMM_VERS = 2.0
CREATION_DATE  = 
ORIGINATOR     = 

OBJECT_NAME    = INTERCOSMOS 25
OBJECT_ID      = 1991-086A
CENTER_NAME    = EARTH
REF_FRAME      = TEME
TIME_SYSTEM    = UTC
MEAN_ELEMENT_THEORY = SGP/SGP4

EPOCH          = 2026-03-16T14:12:31.652928
MEAN_MOTION    = 12.12025324
ECCENTRICITY   = .1486836
INCLINATION    = 82.6041
RA_OF_ASC_NODE = 305.8364
ARG_OF_PERICENTER = 102.0646
MEAN_ANOMALY   = 275.0452

EPHEMERIS_TYPE = 0
CLASSIFICATION_TYPE = U
NORAD_CAT_ID   = 21819
ELEMENT_SET_NO = 999
REV_AT_EPOCH   = 49752
BSTAR          = .35344E-3
MEAN_MOTION_DOT = .184E-4
MEAN_MOTION_DDOT = 0

CCSDS_OMM_VERS = 2.0
CREATION_DATE  = 
ORIGINATOR     = 

OBJECT_NAME    = SL-8 R/B
OBJECT_ID      = 1992-008B
CENTER_NAME    = EARTH
REF_FRAME      = TEME
TIME_SYSTEM    = UTC
MEAN_ELEMENT_THEORY = SGP/SGP4

EPOCH          = 2026-03-17T00:05:07.880352
MEAN_MOTION    = 13.75969733
ECCENTRICITY   = .0035776
INCLINATION    = 82.9222
RA_OF_ASC_NODE = 262.3359
ARG_OF_PERICENTER = 113.5713
MEAN_ANOMALY   = 357.3296

EPHEMERIS_TYPE = 0
CLASSIFICATION_TYPE = U
NORAD_CAT_ID   = 21876
ELEMENT_SET_NO = 999
REV_AT_EPOCH   = 71042
BSTAR          = -.6005E-5
MEAN_MOTION_DOT = .1E-6
MEAN_MOTION_DDOT = 0

CCSDS_OMM_VERS = 2.0
CREATION_DATE  = 
ORIGINATOR     = 

OBJECT_NAME    = SL-8 R/B
OBJECT_ID      = 1992-020B
CENTER_NAME    = EARTH
REF_FRAME      = TEME
TIME_SYSTEM    = UTC
MEAN_ELEMENT_THEORY = SGP/SGP4

EPOCH          = 2026-03-16T23:44:08.530368
MEAN_MOTION    = 13.75550070
ECCENTRICITY   = .0027537
INCLINATION    = 82.9325
RA_OF_ASC_NODE = 148.3426
ARG_OF_PERICENTER = 277.4637
MEAN_ANOMALY   = 256.7166

EPHEMERIS_TYPE = 0
CLASSIFICATION_TYPE = U
NORAD_CAT_ID   = 21938
ELEMENT_SET_NO = 999
REV_AT_EPOCH   = 70213
BSTAR          = .41838E-4
MEAN_MOTION_DOT = .55E-6
MEAN_MOTION_DDOT = 0

CCSDS_OMM_VERS = 2.0
CREATION_DATE  = 
ORIGINATOR     = 

OBJECT_NAME    = USA 81
OBJECT_ID      = 1992-023A
CENTER_NAME    = EARTH
REF_FRAME      = TEME
TIME_SYSTEM    = UTC
MEAN_ELEMENT_THEORY = SGP/SGP4

EPOCH          = 2026-03-17T03:12:20.886912
MEAN_MOTION    = 14.32370465
ECCENTRICITY   = .0002262
INCLINATION    = 85.0070
RA_OF_ASC_NODE = 127.1463
ARG_OF_PERICENTER = 71.9106
MEAN_ANOMALY   = 288.2333

EPHEMERIS_TYPE = 0
CLASSIFICATION_TYPE = U
NORAD_CAT_ID   = 21949
ELEMENT_SET_NO = 999
REV_AT_EPOCH   = 9585
BSTAR          = .5906E-4
MEAN_MOTION_DOT = .179E-5
MEAN_MOTION_DDOT = 0

CCSDS_OMM_VERS = 2.0
CREATION_DATE  = 
ORIGINATOR     = 

OBJECT_NAME    = COSMOS 2219
OBJECT_ID      = 1992-076A
CENTER_NAME    = EARTH
REF_FRAME      = TEME
TIME_SYSTEM    = UTC
MEAN_ELEMENT_THEORY = SGP/SGP4

EPOCH          = 2026-03-16T21:03:57.714912
MEAN_MOTION    = 14.14093727
ECCENTRICITY   = .0018562
INCLINATION    = 71.0641
RA_OF_ASC_NODE = 3.0429
ARG_OF_PERICENTER = 197.0359
MEAN_ANOMALY   = 163.0143

EPHEMERIS_TYPE = 0
CLASSIFICATION_TYPE = U
NORAD_CAT_ID   = 22219
ELEMENT_SET_NO = 999
REV_AT_EPOCH   = 71939
BSTAR          = -.1225E-4
MEAN_MOTION_DOT = -.7E-6
MEAN_MOTION_DDOT = 0

CCSDS_OMM_VERS = 2.0
CREATION_DATE  = 
ORIGINATOR     = 

OBJECT_NAME    = SL-16 R/B
OBJECT_ID      = 1992-076B
CENTER_NAME    = EARTH
REF_FRAME      = TEME
TIME_SYSTEM    = UTC
MEAN_ELEMENT_THEORY = SGP/SGP4

EPOCH          = 2026-03-16T16:52:50.117376
MEAN_MOTION    = 14.16859419
ECCENTRICITY   = .0010564
INCLINATION    = 71.0006
RA_OF_ASC_NODE = 173.6007
ARG_OF_PERICENTER = 83.4065
MEAN_ANOMALY   = 66.4973

EPHEMERIS_TYPE = 0
CLASSIFICATION_TYPE = U
NORAD_CAT_ID   = 22220
ELEMENT_SET_NO = 999
REV_AT_EPOCH   = 72282
BSTAR          = .76033E-4
MEAN_MOTION_DOT = .105E-5
MEAN_MOTION_DDOT = 0

CCSDS_OMM_VERS = 2.0
CREATION_DATE  = 
ORIGINATOR     = 

OBJECT_NAME    = COSMOS 2221
OBJECT_ID      = 1992-080A
CENTER_NAME    = EARTH
REF_FRAME      = TEME
TIME_SYSTEM    = UTC
MEAN_ELEMENT_THEORY = SGP/SGP4

EPOCH          = 2026-03-17T01:27:26.819712
MEAN_MOTION    = 14.96230264
ECCENTRICITY   = .0014651
INCLINATION    = 82.5002
RA_OF_ASC_NODE = 272.0185
ARG_OF_PERICENTER = 162.6611
MEAN_ANOMALY   = 197.5114

EPHEMERIS_TYPE = 0
CLASSIFICATION_TYPE = U
NORAD_CAT_ID   = 22236
ELEMENT_SET_NO = 999
REV_AT_EPOCH   = 78189
BSTAR          = .15418E-3
MEAN_MOTION_DOT = .1768E-4
MEAN_MOTION_DDOT = 0

CCSDS_OMM_VERS = 2.0
CREATION_DATE  = 
ORIGINATOR     = 

OBJECT_NAME    = SL-16 R/B
OBJECT_ID      = 1992-093B
CENTER_NAME    = EARTH
REF_FRAME      = TEME
TIME_SYSTEM    = UTC
MEAN_ELEMENT_THEORY = SGP/SGP4

EPOCH          = 2026-03-17T02:08:26.975040
MEAN_MOTION    = 14.15447380
ECCENTRICITY   = .0006277
INCLINATION    = 71.0240
RA_OF_ASC_NODE = 348.7339
ARG_OF_PERICENTER = 286.1699
MEAN_ANOMALY   = 73.8733

EPHEMERIS_TYPE = 0
CLASSIFICATION_TYPE = U
NORAD_CAT_ID   = 22285
ELEMENT_SET_NO = 999
REV_AT_EPOCH   = 71420
BSTAR          = .71319E-4
MEAN_MOTION_DOT = .92E-6
MEAN_MOTION_DDOT = 0

CCSDS_OMM_VERS = 2.0
CREATION_DATE  = 
ORIGINATOR     = 

OBJECT_NAME    = COSMOS 2228
OBJECT_ID      = 1992-094A
CENTER_NAME    = EARTH
REF_FRAME      = TEME
TIME_SYSTEM    = UTC
MEAN_ELEMENT_THEORY = SGP/SGP4

EPOCH          = 2026-03-17T03:20:10.634208
MEAN_MOTION    = 14.97229034
ECCENTRICITY   = .0016565
INCLINATION    = 82.5163
RA_OF_ASC_NODE = 230.1771
ARG_OF_PERICENTER = 277.4645
MEAN_ANOMALY   = 82.4695

EPHEMERIS_TYPE = 0
CLASSIFICATION_TYPE = U
NORAD_CAT_ID   = 22286
ELEMENT_SET_NO = 999
REV_AT_EPOCH   = 77717
BSTAR          = .1575E-3
MEAN_MOTION_DOT = .1853E-4
MEAN_MOTION_DDOT = 0

CCSDS_OMM_VERS = 2.0
CREATION_DATE  = 
ORIGINATOR     = 

OBJECT_NAME    = SL-16 R/B
OBJECT_ID      = 1993-016B
CENTER_NAME    = EARTH
REF_FRAME      = TEME
TIME_SYSTEM    = UTC
MEAN_ELEMENT_THEORY = SGP/SGP4

EPOCH          = 2026-03-17T01:25:54.730272
MEAN_MOTION    = 14.15308530
ECCENTRICITY   = .0012243
INCLINATION    = 71.0083
RA_OF_ASC_NODE = 199.7026
ARG_OF_PERICENTER = 304.5307
MEAN_ANOMALY   = 55.4660

EPHEMERIS_TYPE = 0
CLASSIFICATION_TYPE = U
NORAD_CAT_ID   = 22566
ELEMENT_SET_NO = 999
REV_AT_EPOCH   = 70321
BSTAR          = -.91207E-4
MEAN_MOTION_DOT = -.225E-5
MEAN_MOTION_DDOT = 0

