ERS-1                   
1 21574U 91050A   26076.06548758  .00000268  00000+0  10044-3 0  9995
2 21574  98.7875  94.4854 0032033 178.4627 181.6664 14.39455000816799
ARIANE 40 R/B           
1 21610U 91050F   26076.16823692  .00000275  00000+0  94819-4 0  9991
2 21610  98.1996 128.1236 0004126  64.8706 295.2912 14.42899144820074
INTERCOSMOS 25          
1 21819U 91086A   26075.59203302  .00001840  00000+0  35344-3 0  9993
2 21819  82.6041 305.8364 1486836 102.0646 275.0452 12.12025324497522
SL-8 R/B                
1 21876U 92008B   26076.00356343  .00000010  00000+0 -60050-5 0  9995
2 21876  82.9222 262.3359 0035776 113.5713 357.3296 13.75969733710422
SL-8 R/B                
1 21938U 92020B   26075.98898762  .00000055  00000+0  41838-4 0  9990
2 21938  82.9325 148.3426 0027537 277.4637 256.7166 13.75550070702131
USA 81                  
1 21949U 92023A   26076.13357508  .00000179  00000+0  59060-4 0  9994
2 21949  85.0070 127.1463 0002262  71.9106 288.2333 14.32370465 95858
COSMOS 2219             
1 22219U 92076A   26075.87775133 -.00000070  00000+0 -12250-4 0  9993
2 22219  71.0641   3.0429 0018562 197.0359 163.0143 14.14093727719396
SL-16 R/B               
1 22220U 92076B   26075.70335784  .00000105  00000+0  76033-4 0  9997
2 22220  71.0006 173.6007 0010564  83.4065  66.4973 14.16859419722824
COSMOS 2221             
1 22236U 92080A   26076.06072708  .00001768  00000+0  15418-3 0  9998
2 22236  82.5002 272.0185 0014651 162.6611 197.5114 14.96230264781897
SL-16 R/B               
1 22285U 92093B   26076.08920110  .00000092  00000+0  71319-4 0  9999
2 22285  71.0240 348.7339 0006277 286.1699  73.8733 14.15447380714207
COSMOS 2228             
1 22286U 92094A   26076.13901197  .00001853  00000+0  15750-3 0  9993
2 22286  82.5163 230.1771 0016565 277.4645  82.4695 14.97229034777170
SL-16 R/B               
1 22566U 93016B   26076.05966123 -.00000225  00000+0 -91207-4 0  9996
2 22566  71.0083 199.7026 0012243 304.5307  55.4660 14.15308530703219
